QZS-1R                  
1 49336U 21096A   23265.42462750 -.00000217  00000+0  00000+0 0  9990
2 49336  35.3887  94.6383 0744428 269.6178 283.9535  1.00286635  6992
